CCSDS_OMM_VERS = 2.0
CREATION_DATE  = 
ORIGINATOR     = 

OBJECT_NAME    = KUIPER-00136
OBJECT_ID      = 2025-228R
CENTER_NAME    = EARTH
REF_FRAME      = TEME
TIME_SYSTEM    = UTC
MEAN_ELEMENT_THEORY = SGP/SGP4

EPOCH          = 2025-10-31T14:17:59.053632
MEAN_MOTION    = 15.34865938
ECCENTRICITY   = .0006029
INCLINATION    = 51.8790
RA_OF_ASC_NODE = 223.5912
ARG_OF_PERICENTER = 197.4155
MEAN_ANOMALY   = 162.6625

EPHEMERIS_TYPE = 0
CLASSIFICATION_TYPE = U
NORAD_CAT_ID   = 65962
ELEMENT_SET_NO = 999
REV_AT_EPOCH   = 394
BSTAR          = .11015E-2
MEAN_MOTION_DOT = .37636E-3
MEAN_MOTION_DDOT = 0

CCSDS_OMM_VERS = 2.0
CREATION_DATE  = 
ORIGINATOR     = 

OBJECT_NAME    = KUIPER-00137
OBJECT_ID      = 2025-228S
CENTER_NAME    = EARTH
REF_FRAME      = TEME
TIME_SYSTEM    = UTC
MEAN_ELEMENT_THEORY = SGP/SGP4

EPOCH          = 2025-10-31T14:24:00.836352
MEAN_MOTION    = 15.34458910
ECCENTRICITY   = .0005248
INCLINATION    = 51.8795
RA_OF_ASC_NODE = 223.6202
ARG_OF_PERICENTER = 207.5613
MEAN_ANOMALY   = 152.5095

EPHEMERIS_TYPE = 0
CLASSIFICATION_TYPE = U
NORAD_CAT_ID   = 65963
ELEMENT_SET_NO = 999
REV_AT_EPOCH   = 394
BSTAR          = .11086E-2
MEAN_MOTION_DOT = .37383E-3
MEAN_MOTION_DDOT = 0

CCSDS_OMM_VERS = 2.0
CREATION_DATE  = 
ORIGINATOR     = 

OBJECT_NAME    = KUIPER-00138
OBJECT_ID      = 2025-228T
CENTER_NAME    = EARTH
REF_FRAME      = TEME
TIME_SYSTEM    = UTC
MEAN_ELEMENT_THEORY = SGP/SGP4

EPOCH          = 2025-10-31T14:26:53.575008
MEAN_MOTION    = 15.34315866
ECCENTRICITY   = .0005339
INCLINATION    = 51.8787
RA_OF_ASC_NODE = 223.6283
ARG_OF_PERICENTER = 225.9752
MEAN_ANOMALY   = 134.0794

EPHEMERIS_TYPE = 0
CLASSIFICATION_TYPE = U
NORAD_CAT_ID   = 65964
ELEMENT_SET_NO = 999
REV_AT_EPOCH   = 394
BSTAR          = .13594E-2
MEAN_MOTION_DOT = .4577E-3
MEAN_MOTION_DDOT = 0

CCSDS_OMM_VERS = 2.0
CREATION_DATE  = 
ORIGINATOR     = 

OBJECT_NAME    = KUIPER-00140
OBJECT_ID      = 2025-228U
CENTER_NAME    = EARTH
REF_FRAME      = TEME
TIME_SYSTEM    = UTC
MEAN_ELEMENT_THEORY = SGP/SGP4

EPOCH          = 2025-10-31T14:28:01.697088
MEAN_MOTION    = 15.34282448
ECCENTRICITY   = .0005689
INCLINATION    = 51.8783
RA_OF_ASC_NODE = 223.6349
ARG_OF_PERICENTER = 218.9977
MEAN_ANOMALY   = 141.0599

EPHEMERIS_TYPE = 0
CLASSIFICATION_TYPE = U
NORAD_CAT_ID   = 65965
ELEMENT_SET_NO = 999
REV_AT_EPOCH   = 394
BSTAR          = .11784E-2
MEAN_MOTION_DOT = .39553E-3
MEAN_MOTION_DDOT = 0

CCSDS_OMM_VERS = 2.0
CREATION_DATE  = 
ORIGINATOR     = 

OBJECT_NAME    = KUIPER-00141
OBJECT_ID      = 2025-228V
CENTER_NAME    = EARTH
REF_FRAME      = TEME
TIME_SYSTEM    = UTC
MEAN_ELEMENT_THEORY = SGP/SGP4

EPOCH          = 2025-10-31T14:21:04.323744
MEAN_MOTION    = 15.34680701
ECCENTRICITY   = .0005727
INCLINATION    = 51.8783
RA_OF_ASC_NODE = 223.5998
ARG_OF_PERICENTER = 200.0809
MEAN_ANOMALY   = 159.9953

EPHEMERIS_TYPE = 0
CLASSIFICATION_TYPE = U
NORAD_CAT_ID   = 65966
ELEMENT_SET_NO = 999
REV_AT_EPOCH   = 394
BSTAR          = .11225E-2
MEAN_MOTION_DOT = .38132E-3
MEAN_MOTION_DDOT = 0

CCSDS_OMM_VERS = 2.0
CREATION_DATE  = 
ORIGINATOR     = 

OBJECT_NAME    = KUIPER-00146
OBJECT_ID      = 2025-228W
CENTER_NAME    = EARTH
REF_FRAME      = TEME
TIME_SYSTEM    = UTC
MEAN_ELEMENT_THEORY = SGP/SGP4

EPOCH          = 2025-10-31T14:21:38.331648
MEAN_MOTION    = 15.34649678
ECCENTRICITY   = .00056
INCLINATION    = 51.8794
RA_OF_ASC_NODE = 223.6096
ARG_OF_PERICENTER = 201.6937
MEAN_ANOMALY   = 158.3812

EPHEMERIS_TYPE = 0
CLASSIFICATION_TYPE = U
NORAD_CAT_ID   = 65967
ELEMENT_SET_NO = 999
REV_AT_EPOCH   = 394
BSTAR          = .11746E-2
MEAN_MOTION_DOT = .39891E-3
MEAN_MOTION_DDOT = 0

CCSDS_OMM_VERS = 2.0
CREATION_DATE  = 
ORIGINATOR     = 

OBJECT_NAME    = KUIPER-00149
OBJECT_ID      = 2025-228X
CENTER_NAME    = EARTH
REF_FRAME      = TEME
TIME_SYSTEM    = UTC
MEAN_ELEMENT_THEORY = SGP/SGP4

EPOCH          = 2025-10-31T14:18:36.057024
MEAN_MOTION    = 15.34827704
ECCENTRICITY   = .000589
INCLINATION    = 51.8787
RA_OF_ASC_NODE = 223.5896
ARG_OF_PERICENTER = 198.5800
MEAN_ANOMALY   = 161.4972

EPHEMERIS_TYPE = 0
CLASSIFICATION_TYPE = U
NORAD_CAT_ID   = 65968
ELEMENT_SET_NO = 999
REV_AT_EPOCH   = 394
BSTAR          = .11164E-2
MEAN_MOTION_DOT = .38104E-3
MEAN_MOTION_DDOT = 0

CCSDS_OMM_VERS = 2.0
CREATION_DATE  = 
ORIGINATOR     = 

OBJECT_NAME    = KUIPER-00154
OBJECT_ID      = 2025-228Y
CENTER_NAME    = EARTH
REF_FRAME      = TEME
TIME_SYSTEM    = UTC
MEAN_ELEMENT_THEORY = SGP/SGP4

EPOCH          = 2025-10-31T14:17:27.809664
MEAN_MOTION    = 15.34888479
ECCENTRICITY   = .0005954
INCLINATION    = 51.8787
RA_OF_ASC_NODE = 223.5856
ARG_OF_PERICENTER = 197.2649
MEAN_ANOMALY   = 162.8135

EPHEMERIS_TYPE = 0
CLASSIFICATION_TYPE = U
NORAD_CAT_ID   = 65969
ELEMENT_SET_NO = 999
REV_AT_EPOCH   = 394
BSTAR          = .11881E-2
MEAN_MOTION_DOT = .40669E-3
MEAN_MOTION_DDOT = 0

CCSDS_OMM_VERS = 2.0
CREATION_DATE  = 
ORIGINATOR     = 

OBJECT_NAME    = KUIPER-00157
OBJECT_ID      = 2025-228Z
CENTER_NAME    = EARTH
REF_FRAME      = TEME
TIME_SYSTEM    = UTC
MEAN_ELEMENT_THEORY = SGP/SGP4

EPOCH          = 2025-10-31T14:25:31.000800
MEAN_MOTION    = 15.34448380
ECCENTRICITY   = .0005885
INCLINATION    = 51.8794
RA_OF_ASC_NODE = 223.6268
ARG_OF_PERICENTER = 213.9475
MEAN_ANOMALY   = 146.1135

EPHEMERIS_TYPE = 0
CLASSIFICATION_TYPE = U
NORAD_CAT_ID   = 65970
ELEMENT_SET_NO = 999
REV_AT_EPOCH   = 394
BSTAR          = .11753E-2
MEAN_MOTION_DOT = .39658E-3
MEAN_MOTION_DDOT = 0

CCSDS_OMM_VERS = 2.0
CREATION_DATE  = 
ORIGINATOR     = 

OBJECT_NAME    = STRIX-5
OBJECT_ID      = 2025-229A
CENTER_NAME    = EARTH
REF_FRAME      = TEME
TIME_SYSTEM    = UTC
MEAN_ELEMENT_THEORY = SGP/SGP4

EPOCH          = 2025-10-31T11:23:36.924288
MEAN_MOTION    = 15.01695782
ECCENTRICITY   = .0039676
INCLINATION    = 41.9261
RA_OF_ASC_NODE = 113.2971
ARG_OF_PERICENTER = 354.4181
MEAN_ANOMALY   = 5.6197

EPHEMERIS_TYPE = 0
CLASSIFICATION_TYPE = U
NORAD_CAT_ID   = 65971
ELEMENT_SET_NO = 999
REV_AT_EPOCH   = 255
BSTAR          = .45602E-3
MEAN_MOTION_DOT = .5941E-4
MEAN_MOTION_DDOT = 0

CCSDS_OMM_VERS = 2.0
CREATION_DATE  = 
ORIGINATOR     = 

OBJECT_NAME    = ELECTRON R/B
OBJECT_ID      = 2025-229B
CENTER_NAME    = EARTH
REF_FRAME      = TEME
TIME_SYSTEM    = UTC
MEAN_ELEMENT_THEORY = SGP/SGP4

EPOCH          = 2025-10-31T12:59:23.491968
MEAN_MOTION    = 15.01695827
ECCENTRICITY   = .0039626
INCLINATION    = 41.9266
RA_OF_ASC_NODE = 112.9296
ARG_OF_PERICENTER = 354.7063
MEAN_ANOMALY   = 5.3339

EPHEMERIS_TYPE = 0
CLASSIFICATION_TYPE = U
NORAD_CAT_ID   = 65972
ELEMENT_SET_NO = 999
REV_AT_EPOCH   = 254
BSTAR          = .43802E-3
MEAN_MOTION_DOT = .5698E-4
MEAN_MOTION_DDOT = 0

CCSDS_OMM_VERS = 2.0
CREATION_DATE  = 
ORIGINATOR     = 

OBJECT_NAME    = ELECTRON KICK STAGE R/B
OBJECT_ID      = 2025-229C
CENTER_NAME    = EARTH
REF_FRAME      = TEME
TIME_SYSTEM    = UTC
MEAN_ELEMENT_THEORY = SGP/SGP4

EPOCH          = 2025-10-31T04:47:15.950688
MEAN_MOTION    = 15.02568636
ECCENTRICITY   = .0040783
INCLINATION    = 41.9824
RA_OF_ASC_NODE = 114.7914
ARG_OF_PERICENTER = 352.6362
MEAN_ANOMALY   = 7.3861

EPHEMERIS_TYPE = 0
CLASSIFICATION_TYPE = U
NORAD_CAT_ID   = 65973
ELEMENT_SET_NO = 999
REV_AT_EPOCH   = 248
BSTAR          = .66035E-3
MEAN_MOTION_DOT = .8909E-4
MEAN_MOTION_DDOT = 0

