KUIPER-00136            
1 65962U 25228R   25304.59582238  .00037636  00000+0  11015-2 0  9997
2 65962  51.8790 223.5912 0006029 197.4155 162.6625 15.34865938  3949
KUIPER-00137            
1 65963U 25228S   25304.60000968  .00037383  00000+0  11086-2 0  9992
2 65963  51.8795 223.6202 0005248 207.5613 152.5095 15.34458910  3949
KUIPER-00138            
1 65964U 25228T   25304.60200897  .00045770  00000+0  13594-2 0  9991
2 65964  51.8787 223.6283 0005339 225.9752 134.0794 15.34315866  3942
KUIPER-00140            
1 65965U 25228U   25304.60279742  .00039553  00000+0  11784-2 0  9998
2 65965  51.8783 223.6349 0005689 218.9977 141.0599 15.34282448  3941
KUIPER-00141            
1 65966U 25228V   25304.59796671  .00038132  00000+0  11225-2 0  9994
2 65966  51.8783 223.5998 0005727 200.0809 159.9953 15.34680701  3946
KUIPER-00146            
1 65967U 25228W   25304.59836032  .00039891  00000+0  11746-2 0  9992
2 65967  51.8794 223.6096 0005600 201.6937 158.3812 15.34649678  3943
KUIPER-00149            
1 65968U 25228X   25304.59625066  .00038104  00000+0  11164-2 0  9996
2 65968  51.8787 223.5896 0005890 198.5800 161.4972 15.34827704  3947
KUIPER-00154            
1 65969U 25228Y   25304.59546076  .00040669  00000+0  11881-2 0  9995
2 65969  51.8787 223.5856 0005954 197.2649 162.8135 15.34888479  3944
KUIPER-00157            
1 65970U 25228Z   25304.60105325  .00039658  00000+0  11753-2 0  9991
2 65970  51.8794 223.6268 0005885 213.9475 146.1135 15.34448380  3946
STRIX-5                 
1 65971U 25229A   25304.47473292  .00005941  00000+0  45602-3 0  9998
2 65971  41.9261 113.2971 0039676 354.4181   5.6197 15.01695782  2558
ELECTRON R/B            
1 65972U 25229B   25304.54124412  .00005698  00000+0  43802-3 0  9993
2 65972  41.9266 112.9296 0039626 354.7063   5.3339 15.01695827  2541
ELECTRON KICK STAGE R/B 
1 65973U 25229C   25304.19949017  .00008909  00000+0  66035-3 0  9992
2 65973  41.9824 114.7914 0040783 352.6362   7.3861 15.02568636  2487
